BANDWAGON-2 OBJECT D    
1 62380U 24247D   26068.52261193  .00011259  00000+0  40119-3 0  9994
2 62380  44.9954 115.6710 0003488 351.1453   8.9368 15.29076102 67732
STARLINK-34076          
1 63915U 25095AB  26068.32993305  .00042303  00000+0  15376-2 0  9996
2 63915  42.9964 178.1680 0000672 245.5679 114.5103 15.27588334 47725
